{"type": "FeatureCollection", "features": [ {"type": "Feature", "properties": {"norad_id": 32289, "name": "YAOGAN-3", "group": "resource", "lat": 68.31497457943968, "lon": -136.82781178918717, "alt_km": 591.0007434020054, "timestamp": "2025-12-22T08:58:19.999897+00:00", "meta": {"OBJECT_NAME": "YAOGAN-3", "OBJECT_ID": "2007-055A", "EPOCH": "2025-12-22T05:15:20.051712", "MEAN_MOTION": 14.89896985, "ECCENTRICITY": 0.0001077, "INCLINATION": 97.8351, "RA_OF_ASC_NODE": 22.7582, "ARG_OF_PERICENTER": 76.1391, "MEAN_ANOMALY": 283.9946, "EPHEMERIS_TYPE": 0, "CLASSIFICATION_TYPE": "U", "NORAD_CAT_ID": 32289, "ELEMENT_SET_NO": 999, "REV_AT_EPOCH": 97950, "BSTAR": 0.00017181, "MEAN_MOTION_DOT": 1.597e-05, "MEAN_MOTION_DDOT": 0}, "tle": {"line1": "1 32289U 07055A   25356.21898208  .00001597  00000+0  17181-3 0  9992", "line2": "2 32289  97.8351  22.7582 0001077  76.1391 283.9946 14.89896985979505"}}, "geometry": {"type": "Point", "coordinates": [-136.82781178918717, 68.31497457943968]}}, {"type": "Feature", "properties": {"norad_id": 32376, "name": "COSMO-SKYMED 2", "group": "resource", "lat": 57.38196656741423, "lon": 10.051769517086361, "alt_km": 616.308112843154, "timestamp": "2025-12-22T08:58:19.999908+00:00", "meta": {"OBJECT_NAME": "COSMO-SKYMED 2", "OBJECT_ID": "2007-059A", "EPOCH": "2025-12-22T05:11:04.769088", "MEAN_MOTION": 14.82153848, "ECCENTRICITY": 0.000133, "INCLINATION": 97.8804, "RA_OF_ASC_NODE": 177.3972, "ARG_OF_PERICENTER": 82.9034, "MEAN_ANOMALY": 277.233, "EPHEMERIS_TYPE": 0, "CLASSIFICATION_TYPE": "U", "NORAD_CAT_ID": 32376, "ELEMENT_SET_NO": 999, "REV_AT_EPOCH": 97578, "BSTAR": 7.1673e-05, "MEAN_MOTION_DOT": 5.18e-06, "MEAN_MOTION_DDOT": 0}, "tle": {"line1": "1 32376U 07059A   25356.21602742  .00000518  00000+0  71673-4 0  9998", "line2": "2 32376  97.8804 177.3972 0001330  82.9034 277.2330 14.82153848975782"}}, "geometry": {"type": "Point", "coordinates": [10.051769517086361, 57.38196656741423]}}, {"type": "Feature", "properties": {"norad_id": 32382, "name": "RADARSAT-2", "group": "resource", "lat": 62.92937459637253, "lon": -16.356006008249533, "alt_km": 784.8561308615635, "timestamp": "2025-12-22T08:58:19.999919+00:00", "meta": {"OBJECT_NAME": "RADARSAT-2", "OBJECT_ID": "2007-061A", "EPOCH": "2025-12-22T05:18:51.803424", "MEAN_MOTION": 14.29984166, "ECCENTRICITY": 0.0001138, "INCLINATION": 98.579, "RA_OF_ASC_NODE": 0.6736, "ARG_OF_PERICENTER": 84.7351, "MEAN_ANOMALY": 275.3961, "EPHEMERIS_TYPE": 0, "CLASSIFICATION_TYPE": "U", "NORAD_CAT_ID": 32382, "ELEMENT_SET_NO": 999, "REV_AT_EPOCH": 94066, "BSTAR": 4.3349e-05, "MEAN_MOTION_DOT": 6.8e-07, "MEAN_MOTION_DDOT": 0}, "tle": {"line1": "1 32382U 07061A   25356.22143291  .00000068  00000+0  43349-4 0  9997", "line2": "2 32382  98.5790   0.6736 0001138  84.7351 275.3961 14.29984166940669"}}, "geometry": {"type": "Point", "coordinates": [-16.356006008249533, 62.92937459637253]}}, {"type": "Feature", "properties": {"norad_id": 32783, "name": "CARTOSAT-2A", "group": "resource", "lat": 29.369025338425157, "lon": -129.68421892794373, "alt_km": 639.0605472786192, "timestamp": "2025-12-22T08:58:19.999929+00:00", "meta": {"OBJECT_NAME": "CARTOSAT-2A", "OBJECT_ID": "2008-021A", "EPOCH": "2025-12-22T03:25:25.078368", "MEAN_MOTION": 14.78946685, "ECCENTRICITY": 0.0011149, "INCLINATION": 97.7919, "RA_OF_ASC_NODE": 45.6723, "ARG_OF_PERICENTER": 333.7653, "MEAN_ANOMALY": 26.2993, "EPHEMERIS_TYPE": 0, "CLASSIFICATION_TYPE": "U", "NORAD_CAT_ID": 32783, "ELEMENT_SET_NO": 999, "REV_AT_EPOCH": 95263, "BSTAR": -7.649e-05, "MEAN_MOTION_DOT": -6.15e-06, "MEAN_MOTION_DDOT": 0}, "tle": {"line1": "1 32783U 08021A   25356.14265137 -.00000615  00000+0 -76490-4 0  9997", "line2": "2 32783  97.7919  45.6723 0011149 333.7653  26.2993 14.78946685952634"}}, "geometry": {"type": "Point", "coordinates": [-129.68421892794373, 29.369025338425157]}}, {"type": "Feature", "properties": {"norad_id": 33320, "name": "HUANJING 1A (HJ-1A)", "group": "resource", "lat": 9.62915319982459, "lon": 165.57756176569538, "alt_km": 633.4440326547438, "timestamp": "2025-12-22T08:58:19.999939+00:00", "meta": {"OBJECT_NAME": "HUANJING 1A (HJ-1A)", "OBJECT_ID": "2008-041A", "EPOCH": "2025-12-22T04:58:12.442080", "MEAN_MOTION": 14.8342319, "ECCENTRICITY": 0.0019446, "INCLINATION": 97.654, "RA_OF_ASC_NODE": 344.1104, "ARG_OF_PERICENTER": 4.549, "MEAN_ANOMALY": 355.5897, "EPHEMERIS_TYPE": 0, "CLASSIFICATION_TYPE": "U", "NORAD_CAT_ID": 33320, "ELEMENT_SET_NO": 999, "REV_AT_EPOCH": 93216, "BSTAR": 0.00022011, "MEAN_MOTION_DOT": 1.761e-05, "MEAN_MOTION_DDOT": 0}, "tle": {"line1": "1 33320U 08041A   25356.20708845  .00001761  00000+0  22011-3 0  9992", "line2": "2 33320  97.6540 344.1104 0019446   4.5490 355.5897 14.83423190932165"}}, "geometry": {"type": "Point", "coordinates": [165.57756176569538, 9.62915319982459]}}, {"type": "Feature", "properties": {"norad_id": 33321, "name": "HUANJING 1B (HJ-1B)", "group": "resource", "lat": 10.804928665608266, "lon": -13.526084029581462, "alt_km": 599.8732367887387, "timestamp": "2025-12-22T08:58:19.999957+00:00", "meta": {"OBJECT_NAME": "HUANJING 1B (HJ-1B)", "OBJECT_ID": "2008-041B", "EPOCH": "2025-12-22T05:41:04.119072", "MEAN_MOTION": 14.82844033, "ECCENTRICITY": 0.0037962, "INCLINATION": 97.6398, "RA_OF_ASC_NODE": 347.8109, "ARG_OF_PERICENTER": 45.6796, "MEAN_ANOMALY": 314.752, "EPHEMERIS_TYPE": 0, "CLASSIFICATION_TYPE": "U", "NORAD_CAT_ID": 33321, "ELEMENT_SET_NO": 999, "REV_AT_EPOCH": 93218, "BSTAR": 0.00011491, "MEAN_MOTION_DOT": 8.9e-06, "MEAN_MOTION_DDOT": 0}, "tle": {"line1": "1 33321U 08041B   25356.23685323  .00000890  00000+0  11491-3 0  9993", "line2": "2 33321  97.6398 347.8109 0037962  45.6796 314.7520 14.82844033932184"}}, "geometry": {"type": "Point", "coordinates": [-13.526084029581462, 10.804928665608266]}}, {"type": "Feature", "properties": {"norad_id": 33331, "name": "GEOEYE 1", "group": "resource", "lat": 81.81701113404263, "lon": -29.077359288016904, "alt_km": 672.329033126467, "timestamp": "2025-12-22T08:58:19.999967+00:00", "meta": {"OBJECT_NAME": "GEOEYE 1", "OBJECT_ID": "2008-042A", "EPOCH": "2025-12-22T03:38:23.421408", "MEAN_MOTION": 14.64712397, "ECCENTRICITY": 0.0002878, "INCLINATION": 98.124, "RA_OF_ASC_NODE": 67.3134, "ARG_OF_PERICENTER": 243.7605, "MEAN_ANOMALY": 116.3302, "EPHEMERIS_TYPE": 0, "CLASSIFICATION_TYPE": "U", "NORAD_CAT_ID": 33331, "ELEMENT_SET_NO": 999, "REV_AT_EPOCH": 92423, "BSTAR": 0.00011218, "MEAN_MOTION_DOT": 5.5e-06, "MEAN_MOTION_DDOT": 0}, "tle": {"line1": "1 33331U 08042A   25356.15165997  .00000550  00000+0  11218-3 0  9996", "line2": "2 33331  98.1240  67.3134 0002878 243.7605 116.3302 14.64712397924235"}}, "geometry": {"type": "Point", "coordinates": [-29.077359288016904, 81.81701113404263]}}, {"type": "Feature", "properties": {"norad_id": 33396, "name": "THEOS", "group": "resource", "lat": -21.987220303862728, "lon": -129.31811325379527, "alt_km": 830.5789420082219, "timestamp": "2025-12-22T08:58:19.999978+00:00", "meta": {"OBJECT_NAME": "THEOS", "OBJECT_ID": "2008-049A", "EPOCH": "2025-12-22T04:38:29.287392", "MEAN_MOTION": 14.20097847, "ECCENTRICITY": 0.0001205, "INCLINATION": 98.5857, "RA_OF_ASC_NODE": 54.004, "ARG_OF_PERICENTER": 94.9022, "MEAN_ANOMALY": 265.2292, "EPHEMERIS_TYPE": 0, "CLASSIFICATION_TYPE": "U", "NORAD_CAT_ID": 33396, "ELEMENT_SET_NO": 999, "REV_AT_EPOCH": 89284, "BSTAR": -5.2001e-05, "MEAN_MOTION_DOT": -1.53e-06, "MEAN_MOTION_DDOT": 0}, "tle": {"line1": "1 33396U 08049A   25356.19339453 -.00000153  00000+0 -52001-4 0  9995", "line2": "2 33396  98.5857  54.0040 0001205  94.9022 265.2292 14.20097847892846"}}, "geometry": {"type": "Point", "coordinates": [-129.31811325379527, -21.987220303862728]}}, {"type": "Feature", "properties": {"norad_id": 33412, "name": "COSMO-SKYMED 3", "group": "resource", "lat": 3.014893209100669, "lon": -153.48785764645228, "alt_km": 561.4108003700721, "timestamp": "2025-12-22T08:58:19.999988+00:00", "meta": {"OBJECT_NAME": "COSMO-SKYMED 3", "OBJECT_ID": "2008-054A", "EPOCH": "2025-12-22T04:10:22.929600", "MEAN_MOTION": 15.05432498, "ECCENTRICITY": 0.0017042, "INCLINATION": 97.8459, "RA_OF_ASC_NODE": 206.725, "ARG_OF_PERICENTER": 140.5137, "MEAN_ANOMALY": 219.7334, "EPHEMERIS_TYPE": 0, "CLASSIFICATION_TYPE": "U", "NORAD_CAT_ID": 33412, "ELEMENT_SET_NO": 999, "REV_AT_EPOCH": 93029, "BSTAR": 0.00026159, "MEAN_MOTION_DOT": 3.701e-05, "MEAN_MOTION_DDOT": 0}, "tle": {"line1": "1 33412U 08054A   25356.17387650  .00003701  00000+0  26159-3 0  9994", "line2": "2 33412  97.8459 206.7250 0017042 140.5137 219.7334 15.05432498930297"}}, "geometry": {"type": "Point", "coordinates": [-153.48785764645228, 3.014893209100669]}}, {"type": "Feature", "properties": {"norad_id": 33446, "name": "YAOGAN-4", "group": "resource", "lat": -78.53545679646236, "lon": -30.277188326296617, "alt_km": 619.1578618143458, "timestamp": "2025-12-22T08:58:19.999998+00:00", "meta": {"OBJECT_NAME": "YAOGAN-4", "OBJECT_ID": "2008-061A", "EPOCH": "2025-12-21T18:45:45.373824", "MEAN_MOTION": 14.82706695, "ECCENTRICITY": 0.0013067, "INCLINATION": 97.9195, "RA_OF_ASC_NODE": 285.7927, "ARG_OF_PERICENTER": 291.438, "MEAN_ANOMALY": 68.5439, "EPHEMERIS_TYPE": 0, "CLASSIFICATION_TYPE": "U", "NORAD_CAT_ID": 33446, "ELEMENT_SET_NO": 999, "REV_AT_EPOCH": 91937, "BSTAR": 0.0001402, "MEAN_MOTION_DOT": 1.079e-05, "MEAN_MOTION_DDOT": 0}, "tle": {"line1": "1 33446U 08061A   25355.78177516  .00001079  00000+0  14020-3 0  9993", "line2": "2 33446  97.9195 285.7927 0013067 291.4380  68.5439 14.82706695919378"}}, "geometry": {"type": "Point", "coordinates": [-30.277188326296617, -78.53545679646236]}}]}